[{"OBJECT_NAME":"STARLINK-30850","OBJECT_ID":"2023-171T","EPOCH":"2026-03-09T22:00:01.999584","MEAN_MOTION":15.23185969,"ECCENTRICITY":0.00015695,"INCLINATION":43.0008,"RA_OF_ASC_NODE":283.6898,"ARG_OF_PERICENTER":287.5987,"MEAN_ANOMALY":22.3163,"EPHEMERIS_TYPE":0,"CLASSIFICATION_TYPE":"U","NORAD_CAT_ID":58247,"ELEMENT_SET_NO":999,"REV_AT_EPOCH":577,"BSTAR":0.046917107,"MEAN_MOTION_DOT":0.01236111,"MEAN_MOTION_DDOT":0},{"OBJECT_NAME":"NOAA 16 DEB","OBJECT_ID":"2000-055RJ","EPOCH":"2026-03-09T05:33:49.273920","MEAN_MOTION":15.3473827,"ECCENTRICITY":0.00201356,"INCLINATION":98.8603,"RA_OF_ASC_NODE":346.753,"ARG_OF_PERICENTER":100.321,"MEAN_ANOMALY":260.03,"EPHEMERIS_TYPE":0,"CLASSIFICATION_TYPE":"U","NORAD_CAT_ID":42366,"ELEMENT_SET_NO":999,"REV_AT_EPOCH":53004,"BSTAR":0.012036716,"MEAN_MOTION_DOT":0.00430695,"MEAN_MOTION_DDOT":0}]
